BEESAT-4                
1 41619U 16040W   22276.12142791  .00030036  00000+0  91457-3 0  9998
2 41619  97.2051 323.9970 0010520  93.1859 267.0587 15.33889008337219
RAVAN                   
1 41849U 16067B   22275.83989721  .00005604  00000+0  43941-3 0  9999
2 41849  98.0094  56.0461 0014185 340.6819  19.3865 15.01319964322109
CELTEE 1                
1 41850U 16067C   22275.81018764  .00003671  00000+0  30896-3 0  9996
2 41850  98.0152  50.6429 0008531 353.3921   6.7187 14.98874274321834
OPTICUBE 04             
1 41851U 16067D   22276.11083535  .00002632  00000+0  22788-3 0  9996
2 41851  98.0108  49.8580 0008020 349.2689  10.8360 14.98044582321821
AEROCUBE 8D             
1 41852U 16067E   22276.07249589  .00004919  00000+0  41262-3 0  9993
2 41852  98.0123  49.9201 0009216 354.7692   5.3432 14.98829426321819
AEROCUBE 8C             
1 41853U 16067F   22275.85550030  .00005107  00000+0  42870-3 0  9991
2 41853  98.0091  49.5053 0008657 356.0951   4.0202 14.98783401321774
PROMETHEUS 2-1          
1 41854U 16067G   22275.86657776  .00007832  00000+0  62900-3 0  9991
2 41854  98.0145  50.8035 0015832 354.7860   5.3195 15.00239735321840
PROMETHEUS 2-3          
1 41855U 16067H   22276.12451082  .00008800  00000+0  70623-3 0  9991
2 41855  98.0092  51.1492 0014626  13.4747 346.6864 15.00243331321881
INS-1B                  
1 41954U 17008G   22275.70741010  .00020628  00000+0  62719-3 0  9992
2 41954  97.2456 333.4827 0006702 198.3303 161.7700 15.34044117313177
BGUSAT                  
1 41999U 17008BD  22276.19554968  .00080608  00000+0  15468-2 0  9991
2 41999  97.2695 346.6169 0005285 178.2963 181.8306 15.47684431313268
DIDO-2                  
1 42000U 17008BE  22275.74005372  .00011668  00000+0  40467-3 0  9993
2 42000  97.2449 332.3512 0006037 226.1888 133.8854 15.29939635312463
PEASSS                  
1 42015U 17008BV  22275.66757801  .00017975  00000+0  55067-3 0  9990
2 42015  97.2515 336.7360 0004228 213.0253 147.0727 15.33844446313190
AL-FARABI 1             
1 42016U 17008BW  22275.71784890  .00027537  00000+0  74405-3 0  9997
2 42016  97.2583 340.4116 0003888 201.8985 158.2094 15.37702929313515
NAYIF-1 (EO-88)         
1 42017U 17008BX  22275.72197260  .00030776  00000+0  82591-3 0  9992
2 42017  97.2574 340.4417 0004189 202.4582 157.6480 15.37890185313542
UCLSAT                  
1 42765U 17036A   22275.85127847  .00021034  00000+0  68044-3 0  9995
2 42765  97.1870 315.2489 0007063 306.1301  53.9287 15.32056052294288
LITUANICASAT-2          
1 42768U 17036D   22276.08089644  .00055058  00000+0  13314-2 0  9998
2 42768  97.1943 319.4164 0007378 274.4991  85.5413 15.40931299293790
AALTO-1                 
1 42775U 17036L   22276.08802045  .00011894  00000+0  45139-3 0  9995
2 42775  97.1887 309.8418 0010483 310.2522  49.7799 15.26937128293194
URSA MAIOR              
1 42776U 17036M   22275.82861981  .00012537  00000+0  46595-3 0  9993
2 42776  97.1900 310.4373 0010077 309.4307  50.6040 15.27621934293195
COMPASS 2               
1 42777U 17036N   22276.11321970  .00034707  00000+0  98530-3 0  9995
2 42777  97.1938 318.1988 0006998 284.6217  75.4251 15.36098582293652
DIAMOND RED             
1 42783U 17036U   22276.09670399  .00015022  00000+0  53334-3 0  9993
2 42783  97.1902 313.2421 0008502 313.8337  46.2201 15.29098005293382
PEGASUS                 
1 42784U 17036V   22276.10297037  .00019197  00000+0  64187-3 0  9995
2 42784  97.1892 314.6331 0007951 309.0557  50.9976 15.31003539293476
DIAMOND GREEN           
1 42785U 17036W   22275.83565598  .00014933  00000+0  53031-3 0  9994
2 42785  97.1904 313.0534 0008310 316.4920  43.5664 15.29092260293417
DIAMOND BLUE            
1 42786U 17036X   22275.83476441  .00015065  00000+0  53507-3 0  9998
2 42786  97.1903 313.0444 0008398 317.0724  42.9860 15.29086097293414
NUDTSAT                 
1 42787U 17036Y   22276.22248944  .00028030  00000+0  76157-3 0  9990
2 42787  97.1907 319.7638 0006162 289.1287  70.9306 15.37516335293639
SUCHAI                  
1 42788U 17036Z   22275.11037167  .00022467  00000+0  70001-3 0  9991
2 42788  97.1892 315.6236 0007063 305.6270  54.4314 15.33246090293516
SKCUBE                  
1 42789U 17036AA  22275.62465140  .00017921  00000+0  57702-3 0  9996
2 42789  97.1893 315.4520 0007216 305.6301  54.4269 15.32239347293477
VZLUSAT-1               
1 42790U 17036AB  22275.85229921  .00036994  00000+0  10116-2 0  9996
2 42790  97.1911 319.3417 0005713 289.6623  70.4006 15.37261618293722
ROBUSTA 1B              
1 42792U 17036AD  22275.60378400  .00019931  00000+0  62714-3 0  9992
2 42792  97.1890 316.0855 0006734 305.2967  54.7645 15.32957781293520
CICERO 6                
1 42793U 17036AE  22275.66906200  .00011578  00000+0  41477-3 0  9996
2 42793  97.1877 313.3276 0007149 316.7429  43.3249 15.28873661293448
CORVUS BC2              
1 42846U 17042X   22275.85006730  .00002020  00000+0  19858-3 0  9992
2 42846  97.4098 127.0300 0009534   6.7800 353.3547 14.93136629284309
CORVUS BC1              
1 42847U 17042Y   22275.85636344  .00002001  00000+0  19632-3 0  9992
2 42847  97.4100 127.3598 0009208   5.9938 354.1391 14.93229323284318
MIRATA                  
1 43015U 17073C   22276.19389037  .00011780  00000+0  83728-3 0  9997
2 43015  97.6587 167.5162 0234159 186.1160 173.7188 14.85290774263252
MAKERSAT 0              
1 43016U 17073D   22276.15752720  .00006587  00000+0  48344-3 0  9991
2 43016  97.6597 166.7867 0242148 191.5907 167.9673 14.83216957263144
CORVUS BC3              
1 43118U 18004H   22275.76897533  .00011549  00000+0  41557-3 0  9990
2 43118  97.3531 347.1338 0008371 352.8531   7.2588 15.28728356262605
MICROMAS-2A             
1 43131U 18004W   22275.74038060  .00041813  00000+0  10101-2 0  9992
2 43131  97.3673 355.5642 0004769 328.4189  31.6770 15.41044190263071
SPACEBEE-4              
1 43139U 18004AE  22276.16468858  .00163528  00000+0  22917-2 0  9995
2 43139  97.3765   2.8128 0004014 295.8131  64.2710 15.56197936263517
SPACEBEE-3              
1 43140U 18004AF  22275.26773862  .06321102  24304-5  23410-2 0  9999
2 43140  97.3528   8.9201 0014114 289.8396  70.1374 16.24295197263812
CICERO 7                
1 43143U 18004AJ  22275.76630669  .00027392  00000+0  76767-3 0  9997
2 43143  97.3659 354.5370 0004476 348.7463  11.3680 15.36566013263038
GOMX-4B                 
1 43196U 18015E   22275.84312270  .00011961  00000+0  43471-3 0  9992
2 43196  97.5486  56.4037 0017583  42.0142 318.2443 15.28283563259550
GOMX-4A                 
1 43197U 18015F   22276.16838880  .00010333  00000+0  35475-3 0  9996
2 43197  97.5485  57.8318 0017060  39.8426 131.5801 15.30196284259680
AEROCUBE 12A            
1 43556U 18046C   22275.56698832  .00033061  00000+0  73739-3 0  9991
2 43556  51.6373  20.2844 0006629  55.7872 304.3742 15.43241496235830
AEROCUBE 12B            
1 43557U 18046D   22275.60177788  .00026534  00000+0  65404-3 0  9996
2 43557  51.6379  26.4318 0006949  55.5428 304.6213 15.40347756235706
SURFSAT                 
1 43614U 18070B   22276.15258361  .00095926  00000+0  10077-2 0  9991
2 43614  93.0147 144.6756 0005887 327.4842  32.6063 15.64018449227840
CP7 (DAVE)              
1 43615U 18070C   22276.15007127  .00084754  00000+0  97663-3 0  9998
2 43615  93.0133 144.3956 0006830 331.0538  29.0349 15.61663018227793
ELFIN-B                 
1 43616U 18070D   22273.19173268  .15406410  25966-6  24527-3 0  9997
2 43616  92.9806 145.7922 0009909 241.3990 118.6326 16.47871482227917
CUBEBEL-1 (BSUSAT-1)    
1 43666U 18083E   22276.07204573  .00011693  00000+0  47127-3 0  9995
2 43666  97.4138 303.6189 0011200 320.4648 126.5678 15.24935722217870
CICERO 10               
1 43690U 18088A   22275.87923441  .00013518  00000+0  51788-3 0  9992
2 43690  85.0343 244.9424 0016085 106.8820 253.4190 15.26282097216130
IRVINE01                
1 43693U 18088D   22276.04992830  .00101118  00000+0  20596-2 0  9999
2 43693  85.0254 237.4919 0014850  77.8651 282.4266 15.45759149216793
PROXIMA I               
1 43694U 18088E   22275.65761424  .00015052  00000+0  54699-3 0  9992
2 43694  85.0283 241.5103 0019522  79.6727 280.6718 15.27968042216338
PROXIMA II              
1 43696U 18088G   22275.65953616  .00014782  00000+0  53767-3 0  9994
2 43696  85.0284 241.5321 0019545  79.6811 280.6637 15.27937007216328
FACSAT-1                
1 43721U 18096C   22276.11761160  .00029633  00000+0  73602-3 0  9996
2 43721  97.3435 356.0603 0012831  30.7499  56.8468 15.40198840214521
CENTAURI-2              
1 43722U 18096D   22275.76328992  .00052180  00000+0  10994-2 0  9996
2 43722  97.3485 358.3861 0011094  24.7800 335.3979 15.45027104214618
INNOSAT-2               
1 43738U 18096V   22276.11042889  .00130316  00000+0  14428-2 0  9995
2 43738  97.3589   8.0165 0008314 355.6494 124.3147 15.62527265215236
SIRION PATHFINDER-2     
1 43759U 18099B   22276.15739982  .00002510  00000+0  22463-3 0  9995
2 43759  97.6099 340.0732 0012454 259.5073 100.4745 14.96678491209159
CORVUS BC4              
1 43767U 18099K   22276.15482631  .00002842  00000+0  25760-3 0  9991
2 43767  97.6052 338.4198 0010043 266.2608  93.7465 14.96086457209074
MOVE-II                 
1 43780U 18099Y   22276.15468102  .00007082  00000+0  59608-3 0  9992
2 43780  97.6155 341.0893 0011071 270.1064  89.8890 14.98494267209181
SPACEBEE-7              
1 43816U 18099BL  22276.15264367  .00006111  00000+0  51816-3 0  9994
2 43816  97.6178 341.8134 0010965 250.3708 109.6331 14.98262625208774
SPACEBEE-5              
1 43817U 18099BM  22276.12845259  .00019087  00000+0  14254-2 0  9997
2 43817  97.6266 345.4311 0004431 232.9280 127.1540 15.02852972208933
SPACEBEE-6              
1 43818U 18099BN  22275.89325161  .00007846  00000+0  64188-3 0  9998
2 43818  97.6228 342.6753 0010757 254.1681 105.8356 14.99561920208933
